ONEWEB-0328             
1 49197U 21083M   25132.45109733 -.00000194  00000+0 -56544-3 0  9991
2 49197  87.8989  39.8439 0001979  82.3672 277.7682 13.13469317178295
ONEWEB-0331             
1 49198U 21083N   25132.52050141 -.00000015  00000+0 -72021-4 0  9999
2 49198  87.9150  55.0832 0002365  79.9754 280.1645 13.18682336177207
ONEWEB-0333             
1 49199U 21083P   25132.44601632 -.00000024  00000+0 -10089-3 0  9993
2 49199  87.9000  39.9068 0001816  79.6593 280.4741 13.13469619178306
ONEWEB-0334             
1 49200U 21083Q   25132.54060573 -.00000229  00000+0 -59411-3 0  9999
2 49200  87.9277 354.2569 0000759  86.5599 273.5621 13.20770394183907
ONEWEB-0335             
1 49201U 21083R   25132.44094276  .00000115  00000+0  28041-3 0  9993
2 49201  87.9001  39.8963 0002081  76.9771 283.1590 13.13469781178310
ONEWEB-0336             
1 49202U 21083S   25132.48834622  .00000299  00000+0  78455-3 0  9992
2 49202  87.8996  39.8803 0001878  75.3318 284.8019 13.13470094178312
ONEWEB-0337             
1 49203U 21083T   25132.49836966  .00000351  00000+0  92525-3 0  9990
2 49203  87.8999  39.8776 0002050  82.8626 277.2736 13.13469640178310
ONEWEB-0338             
1 49204U 21083U   25132.59112904 -.00000006  00000+0 -47510-4 0  9995
2 49204  87.9285 354.2349 0001439  87.2928 272.8370 13.20772924183933
ONEWEB-0339             
1 49205U 21083V   25132.43078488  .00000275  00000+0  71815-3 0  9997
2 49205  87.8995  39.8791 0001858  83.2891 276.8449 13.13470039178285
ONEWEB-0340             
1 49206U 21083W   25132.50629730 -.00000381  00000+0 -99994-3 0  9996
2 49206  87.9158  55.0836 0002101  79.2108 280.9260 13.18685691177166
ONEWEB-0341             
1 49207U 21083X   25132.51420605  .00000035  00000+0  55551-4 0  9994
2 49207  87.9159  55.0924 0002239  95.1661 264.9727 13.18687643177180
ONEWEB-0342             
1 49208U 21083Y   25132.59744363 -.00000025  00000+0 -93391-4 0  9998
2 49208  87.9275 354.2158 0001677  85.1777 274.9548 13.20772694183908
ONEWEB-0343             
1 49209U 21083Z   25132.50947842 -.00000072  00000+0 -21575-3 0  9993
2 49209  87.9152  55.0808 0001915  99.1034 261.0315 13.18686159177232
ONEWEB-0344             
1 49210U 21083AA  25132.27335443  .00000348  00000+0  91881-3 0  9998
2 49210  87.8999  39.9487 0002180  89.5384 270.5995 13.13470857178266
ONEWEB-0345             
1 49211U 21083AB  25132.49342152  .00000251  00000+0  65121-3 0  9999
2 49211  87.8994  39.8587 0002228  90.8603 269.2781 13.13468489178305
ONEWEB-0346             
1 49212U 21083AC  25132.51895641 -.00000033  00000+0 -11568-3 0  9995
2 49212  87.9157  55.1008 0002484  70.7155 289.4246 13.18685159177174
ONEWEB-0348             
1 49213U 21083AD  25132.58798080 -.00000010  00000+0 -55323-4 0  9995
2 49213  87.9285 354.2209 0002475  86.5435 273.5981 13.20771875183934
ONEWEB-0350             
1 49214U 21083AE  25132.50272650  .00000358  00000+0  94574-3 0  9991
2 49214  87.8995  39.8482 0002136  86.3532 273.7841 13.13469097178338
ONEWEB-0351             
1 49215U 21083AF  25132.58152785  .00000030  00000+0  42721-4 0  9991
2 49215  87.9281 354.2070 0001278 109.0116 251.1155 13.20770182183895
ONEWEB-0352             
1 49216U 21083AG  25132.48325730  .00000160  00000+0  40292-3 0  9997
2 49216  87.8996  39.8920 0001525  90.3972 269.7332 13.13471541178429
ONEWEB-0354             
1 49217U 21083AH  25132.53115905 -.00000028  00000+0 -10081-3 0  9993
2 49217  87.9284 354.2139 0002096  89.3062 270.8312 13.20773021183927
ONEWEB-0355             
1 49218U 21083AJ  25132.43599614  .00000103  00000+0  24703-3 0  9994
2 49218  87.8998  39.8996 0001859  86.6368 273.4974 13.13468280178298
ONEWEB-0357             
1 49219U 21083AK  25132.52799872  .00000018  00000+0  12677-4 0  9996
2 49219  87.9280 354.2220 0001742  89.7527 270.3806 13.20772311185222
ONEWEB-0332             
1 49279U 21090A   25132.15402566 -.00000119  00000+0 -35473-3 0  9992
2 49279  87.9067   9.4954 0001564  80.6879 279.4427 13.14502241174892
ONEWEB-0347             
1 49280U 21090B   25132.51852220 -.00000008  00000+0 -50429-4 0  9996
2 49280  87.9284 354.2309 0001560  74.4532 285.6774 13.20773255178152
ONEWEB-0349             
1 49281U 21090C   25132.55009173  .00000063  00000+0  12354-3 0  9995
2 49281  87.9285 354.2298 0001770  87.9756 272.1579 13.20772338176941
ONEWEB-0353             
1 49282U 21090D   25132.60280651 -.00000130  00000+0 -38397-3 0  9996
2 49282  87.9068   9.3931 0001570  77.6195 282.5110 13.14502366174954
ONEWEB-0356             
1 49283U 21090E   25132.54851360  .00000055  00000+0  10401-3 0  9991
2 49283  87.9284 354.2216 0002386  64.6526 295.4855 13.20773150176941
ONEWEB-0358             
1 49284U 21090F   25132.57850753  .00000046  00000+0  80515-4 0  9994
2 49284  87.9285 354.2054 0001982  83.6079 276.5280 13.20773009177674
ONEWEB-0359             
1 49285U 21090G   25132.57535029  .00000108  00000+0  23362-3 0  9996
2 49285  87.9284 354.2187 0002169  90.2383 269.8999 13.20772889177656
ONEWEB-0360             
1 49286U 21090H   25132.56587767  .00000036  00000+0  56072-4 0  9997
2 49286  87.9283 354.2263 0001947  86.9436 273.1920 13.20772707176969
ONEWEB-0361             
1 49287U 21090J   25132.54693300  .00000061  00000+0  11702-3 0  9995
2 49287  87.9283 354.2254 0001881  79.3661 280.7684 13.20773537177417
ONEWEB-0362             
1 49288U 21090K   25132.40966164  .00000121  00000+0  27109-3 0  9997
2 49288  87.9255  24.6587 0001796  87.1283 273.0055 13.19725117174059
ONEWEB-0363             
1 49289U 21090L   25132.56272202  .00000125  00000+0  27438-3 0  9997
2 49289  87.9285 354.2173 0002113  75.7166 284.4202 13.20773311177428
ONEWEB-0364             
1 49290U 21090M   25132.60059262 -.00000005  00000+0 -44960-4 0  9992
2 49290  87.9286 354.2396 0001870  80.0836 280.0509 13.20770121178564
ONEWEB-0365             
1 49291U 21090N   25132.41913621  .00000037  00000+0  59029-4 0  9995
2 49291  87.9247  24.6159 0001747  81.3682 278.7648 13.19727023173567
ONEWEB-0366             
1 49292U 21090P   25132.59963803 -.00000125  00000+0 -37090-3 0  9995
2 49292  87.9070   9.4058 0001866  80.9914 279.1427 13.14501929174938
ONEWEB-0367             
1 49293U 21090Q   25132.56114172  .00000068  00000+0  13548-3 0  9996
2 49293  87.9283 354.2127 0001665  90.3962 269.7362 13.20772801176940
ONEWEB-0368             
1 49294U 21090R   25132.53429661 -.00000021  00000+0 -82659-4 0  9997
2 49294  87.9286 354.2512 0001569  55.3607 304.7674 13.20774929178099
ONEWEB-0369             
1 49295U 21090S   25132.18693630 -.00000134  00000+0 -36752-3 0  9995
2 49295  87.9255  24.6874 0001789  79.6155 280.5180 13.19724527173529
ONEWEB-0370             
1 49296U 21090T   25132.57061197  .00000132  00000+0  29395-3 0  9997
2 49296  87.9284 354.2162 0001911  94.4662 265.6690 13.20773491176988
ONEWEB-0371             
1 49297U 21090U   25132.19484201  .00000126  00000+0  28219-3 0  9998
2 49297  87.9253  24.6757 0001767  82.8764 277.2570 13.19727380173567
ONEWEB-0372             
1 49298U 21090V   25132.55943065  .00000130  00000+0  28811-3 0  9990
2 49298  87.9285 354.2278 0001662  82.5701 277.5621 13.20773280176953
ONEWEB-0373             
1 49299U 21090W   25132.58640166 -.00000003  00000+0 -40377-4 0  9993
2 49299  87.9282 354.2340 0001876  77.5262 282.6081 13.20772217178143
ONEWEB-0374             
1 49300U 21090X   25132.58695149  .00000019  00000+0  16479-4 0  9998
2 49300  87.9069   9.3895 0001971  66.6937 293.4400 13.14501746174934
ONEWEB-0375             
1 49301U 21090Y   25132.57377277  .00000089  00000+0  18608-3 0  9999
2 49301  87.9284 354.2143 0002341  74.6949 285.4443 13.20772036177644
ONEWEB-0376             
1 49302U 21090Z   25132.42070832  .00000002  00000+0 -27681-4 0  9999
2 49302  87.9245  24.6177 0001601  81.1268 279.0046 13.19727867173590
ONEWEB-0377             
1 49303U 21090AA  25132.55969873  .00000085  00000+0  17777-3 0  9990
2 49303  87.9283 354.2096 0002063  89.1100 271.0270 13.20773451177633
ONEWEB-0378             
1 49304U 21090AB  25132.58180064  .00000047  00000+0  83103-4 0  9996
2 49304  87.9286 354.2125 0001896  80.0807 280.0540 13.20772313176902
ONEWEB-0379             
1 49305U 21090AC  25132.58218695  .00000122  00000+0  29546-3 0  9993
2 49305  87.9069   9.3948 0001747  78.1079 282.0246 13.14502721174930
ONEWEB-0380             
1 49306U 21090AD  25132.41754998  .00000068  00000+0  13708-3 0  9999
2 49306  87.9253  24.6439 0002079  80.9055 279.2312 13.19723595173564
ONEWEB-0381             
1 49307U 21090AE  25132.55639907 -.00000200  00000+0 -52260-3 0  9993
2 49307  87.9284 354.2185 0002037  80.3668 279.7695 13.20770264176948
ONEWEB-0382             
1 49308U 21090AF  25132.54378386  .00000060  00000+0  11612-3 0  9992
2 49308  87.9283 354.2155 0001990  75.0631 285.0723 13.20773135176934
ONEWEB-0383             
1 49309U 21090AG  25132.57583762  .00000189  00000+0  47429-3 0  9999
2 49309  87.9067   9.3773 0001738  75.6460 284.4862 13.14501095174960
ONEWEB-0384             
1 49310U 21090AH  25132.54021678  .00000047  00000+0  82581-4 0  9993
2 49310  87.9286 354.2328 0002046  69.1908 290.9444 13.20782786176944
ONEWEB-0385             
1 49311U 21090AJ  25132.53587952 -.00000332  00000+0 -84944-3 0  9998
2 49311  87.9285 354.2344 0001912  79.7230 280.4119 13.20771777176916
ONEWEB-0386             
1 49312U 21090AK  25132.55324878  .00000113  00000+0  24501-3 0  9995
2 49312  87.9279 354.2037 0001875  74.7329 285.4012 13.20773664176937
ONEWEB-0387             
1 49313U 21090AL  25132.53746832 -.00000037  00000+0 -12382-3 0  9993
2 49313  87.9267 354.2726 0002152  82.7124 277.4254 13.20772773176930
ONEWEB-0388             
1 49314U 21090AM  25132.26118733  .00000053  00000+0  99532-4 0  9996
2 49314  87.9255  24.6797 0001937  76.6711 283.4637 13.19724718173537
